ASTRA 1D                
1 23331U 94070A   17345.46380479 -.00000274  00000-0  00000+0 0  9996
2 23331   7.8259  48.0255 0003982 210.3458 275.9739  1.00270298 84984
